CCSDS_OMM_VERS = 2.0
CREATION_DATE  = 
ORIGINATOR     = 

OBJECT_NAME    = COSMOS 2242
OBJECT_ID      = 1993-024A
CENTER_NAME    = EARTH
REF_FRAME      = TEME
TIME_SYSTEM    = UTC
MEAN_ELEMENT_THEORY = SGP/SGP4

EPOCH          = 2026-03-28T11:46:24.465216
MEAN_MOTION    = 14.96627425
ECCENTRICITY   = .00150724
INCLINATION    = 82.5161
RA_OF_ASC_NODE = 248.7279
ARG_OF_PERICENTER = 239.5622
MEAN_ANOMALY   = 120.4112

EPHEMERIS_TYPE = 0
CLASSIFICATION_TYPE = U
NORAD_CAT_ID   = 22626
ELEMENT_SET_NO = 999
REV_AT_EPOCH   = 78320
BSTAR          = .18754601E-3
MEAN_MOTION_DOT = .2167E-4
MEAN_MOTION_DDOT = 0

CCSDS_OMM_VERS = 2.0
CREATION_DATE  = 
ORIGINATOR     = 

OBJECT_NAME    = SL-16 R/B
OBJECT_ID      = 1993-059B
CENTER_NAME    = EARTH
REF_FRAME      = TEME
TIME_SYSTEM    = UTC
MEAN_ELEMENT_THEORY = SGP/SGP4

EPOCH          = 2026-03-28T02:38:52.564704
MEAN_MOTION    = 14.17235097
ECCENTRICITY   = .00174502
INCLINATION    = 70.9920
RA_OF_ASC_NODE = 332.2838
ARG_OF_PERICENTER = 189.8461
MEAN_ANOMALY   = 170.2324

EPHEMERIS_TYPE = 0
CLASSIFICATION_TYPE = U
NORAD_CAT_ID   = 22803
ELEMENT_SET_NO = 999
REV_AT_EPOCH   = 68214
BSTAR          = -.64469252E-4
MEAN_MOTION_DOT = -.178E-5
MEAN_MOTION_DDOT = 0

CCSDS_OMM_VERS = 2.0
CREATION_DATE  = 
ORIGINATOR     = 

OBJECT_NAME    = ARIANE 40 R/B
OBJECT_ID      = 1993-061H
CENTER_NAME    = EARTH
REF_FRAME      = TEME
TIME_SYSTEM    = UTC
MEAN_ELEMENT_THEORY = SGP/SGP4

EPOCH          = 2026-03-28T09:54:51.363936
MEAN_MOTION    = 14.32870728
ECCENTRICITY   = .00099952
INCLINATION    = 98.4882
RA_OF_ASC_NODE = 155.9282
ARG_OF_PERICENTER = 223.7471
MEAN_ANOMALY   = 136.2922

EPHEMERIS_TYPE = 0
CLASSIFICATION_TYPE = U
NORAD_CAT_ID   = 22830
ELEMENT_SET_NO = 999
REV_AT_EPOCH   = 69678
BSTAR          = .94224419E-4
MEAN_MOTION_DOT = .214E-5
MEAN_MOTION_DDOT = 0

CCSDS_OMM_VERS = 2.0
CREATION_DATE  = 
ORIGINATOR     = 

OBJECT_NAME    = COSMOS 2278
OBJECT_ID      = 1994-023A
CENTER_NAME    = EARTH
REF_FRAME      = TEME
TIME_SYSTEM    = UTC
MEAN_ELEMENT_THEORY = SGP/SGP4

EPOCH          = 2026-03-28T13:14:21.776352
MEAN_MOTION    = 14.14375534
ECCENTRICITY   = .00091491
INCLINATION    = 71.0517
RA_OF_ASC_NODE = 135.6380
ARG_OF_PERICENTER = 343.9389
MEAN_ANOMALY   = 16.1442

EPHEMERIS_TYPE = 0
CLASSIFICATION_TYPE = U
NORAD_CAT_ID   = 23087
ELEMENT_SET_NO = 999
REV_AT_EPOCH   = 64747
BSTAR          = -.94163503E-4
MEAN_MOTION_DOT = -.227E-5
MEAN_MOTION_DDOT = 0

CCSDS_OMM_VERS = 2.0
CREATION_DATE  = 
ORIGINATOR     = 

OBJECT_NAME    = SL-16 R/B
OBJECT_ID      = 1994-023B
CENTER_NAME    = EARTH
REF_FRAME      = TEME
TIME_SYSTEM    = UTC
MEAN_ELEMENT_THEORY = SGP/SGP4

EPOCH          = 2026-03-28T14:09:05.574240
MEAN_MOTION    = 14.15015157
ECCENTRICITY   = .00054639
INCLINATION    = 71.0017
RA_OF_ASC_NODE = 31.1932
ARG_OF_PERICENTER = 268.0956
MEAN_ANOMALY   = 91.9541

EPHEMERIS_TYPE = 0
CLASSIFICATION_TYPE = U
NORAD_CAT_ID   = 23088
ELEMENT_SET_NO = 999
REV_AT_EPOCH   = 64876
BSTAR          = .20214737E-3
MEAN_MOTION_DOT = .344E-5
MEAN_MOTION_DDOT = 0

CCSDS_OMM_VERS = 2.0
CREATION_DATE  = 
ORIGINATOR     = 

OBJECT_NAME    = SL-16 R/B
OBJECT_ID      = 1994-074B
CENTER_NAME    = EARTH
REF_FRAME      = TEME
TIME_SYSTEM    = UTC
MEAN_ELEMENT_THEORY = SGP/SGP4

EPOCH          = 2026-03-28T14:32:25.102176
MEAN_MOTION    = 14.79428919
ECCENTRICITY   = .00072713
INCLINATION    = 97.7082
RA_OF_ASC_NODE = 117.6555
ARG_OF_PERICENTER = 148.9758
MEAN_ANOMALY   = 324.1690

EPHEMERIS_TYPE = 0
CLASSIFICATION_TYPE = U
NORAD_CAT_ID   = 23343
ELEMENT_SET_NO = 999
REV_AT_EPOCH   = 69004
BSTAR          = .71793234E-4
MEAN_MOTION_DOT = .487E-5
MEAN_MOTION_DDOT = 0

CCSDS_OMM_VERS = 2.0
CREATION_DATE  = 
ORIGINATOR     = 

OBJECT_NAME    = SL-16 R/B
OBJECT_ID      = 1994-077B
CENTER_NAME    = EARTH
REF_FRAME      = TEME
TIME_SYSTEM    = UTC
MEAN_ELEMENT_THEORY = SGP/SGP4

EPOCH          = 2026-03-28T13:31:58.518336
MEAN_MOTION    = 14.15569243
ECCENTRICITY   = .00019606
INCLINATION    = 70.9835
RA_OF_ASC_NODE = 312.7834
ARG_OF_PERICENTER = 197.2036
MEAN_ANOMALY   = 162.9021

EPHEMERIS_TYPE = 0
CLASSIFICATION_TYPE = U
NORAD_CAT_ID   = 23405
ELEMENT_SET_NO = 999
REV_AT_EPOCH   = 61890
BSTAR          = -.983549E-6
MEAN_MOTION_DOT = -.5E-6
MEAN_MOTION_DDOT = 0

CCSDS_OMM_VERS = 2.0
CREATION_DATE  = 
ORIGINATOR     = 

OBJECT_NAME    = ARIANE 40+ R/B
OBJECT_ID      = 1995-021B
CENTER_NAME    = EARTH
REF_FRAME      = TEME
TIME_SYSTEM    = UTC
MEAN_ELEMENT_THEORY = SGP/SGP4

EPOCH          = 2026-03-28T10:21:45.981216
MEAN_MOTION    = 14.39785618
ECCENTRICITY   = .00079274
INCLINATION    = 98.4464
RA_OF_ASC_NODE = 158.6575
ARG_OF_PERICENTER = 88.2198
MEAN_ANOMALY   = 282.3068

EPHEMERIS_TYPE = 0
CLASSIFICATION_TYPE = U
NORAD_CAT_ID   = 23561
ELEMENT_SET_NO = 999
REV_AT_EPOCH   = 62194
BSTAR          = .10950853E-3
MEAN_MOTION_DOT = .3E-5
MEAN_MOTION_DDOT = 0

CCSDS_OMM_VERS = 2.0
CREATION_DATE  = 
ORIGINATOR     = 

OBJECT_NAME    = SL-16 R/B
OBJECT_ID      = 1995-058B
CENTER_NAME    = EARTH
REF_FRAME      = TEME
TIME_SYSTEM    = UTC
MEAN_ELEMENT_THEORY = SGP/SGP4

EPOCH          = 2026-03-28T13:43:21.130176
MEAN_MOTION    = 14.15499218
ECCENTRICITY   = .00101163
INCLINATION    = 71.0203
RA_OF_ASC_NODE = 140.6153
ARG_OF_PERICENTER = 90.7890
MEAN_ANOMALY   = 269.4393

EPHEMERIS_TYPE = 0
CLASSIFICATION_TYPE = U
NORAD_CAT_ID   = 23705
ELEMENT_SET_NO = 999
REV_AT_EPOCH   = 57052
BSTAR          = -.10466011E-3
MEAN_MOTION_DOT = -.252E-5
MEAN_MOTION_DDOT = 0

CCSDS_OMM_VERS = 2.0
CREATION_DATE  = 
ORIGINATOR     = 

OBJECT_NAME    = SL-16 R/B
OBJECT_ID      = 1996-051B
CENTER_NAME    = EARTH
REF_FRAME      = TEME
TIME_SYSTEM    = UTC
MEAN_ELEMENT_THEORY = SGP/SGP4

EPOCH          = 2026-03-28T13:54:27.457344
MEAN_MOTION    = 14.12420968
ECCENTRICITY   = .00135344
INCLINATION    = 70.7586
RA_OF_ASC_NODE = 135.2585
ARG_OF_PERICENTER = 117.5707
MEAN_ANOMALY   = 242.6789

EPHEMERIS_TYPE = 0
CLASSIFICATION_TYPE = U
NORAD_CAT_ID   = 24298
ELEMENT_SET_NO = 999
REV_AT_EPOCH   = 52431
BSTAR          = .81773781E-4
MEAN_MOTION_DOT = .102E-5
MEAN_MOTION_DDOT = 0

CCSDS_OMM_VERS = 2.0
CREATION_DATE  = 
ORIGINATOR     = 

OBJECT_NAME    = ORBVIEW 2 (SEASTAR)
OBJECT_ID      = 1997-037A
CENTER_NAME    = EARTH
REF_FRAME      = TEME
TIME_SYSTEM    = UTC
MEAN_ELEMENT_THEORY = SGP/SGP4

EPOCH          = 2026-03-28T10:42:54.410976
MEAN_MOTION    = 14.35507896
ECCENTRICITY   = .00024211
INCLINATION    = 98.8601
RA_OF_ASC_NODE = 252.2585
ARG_OF_PERICENTER = 31.3361
MEAN_ANOMALY   = 328.7968

EPHEMERIS_TYPE = 0
CLASSIFICATION_TYPE = U
NORAD_CAT_ID   = 24883
ELEMENT_SET_NO = 999
REV_AT_EPOCH   = 51116
BSTAR          = .12904185E-3
MEAN_MOTION_DOT = .324E-5
MEAN_MOTION_DDOT = 0

CCSDS_OMM_VERS = 2.0
CREATION_DATE  = 
ORIGINATOR     = 

OBJECT_NAME    = SL-16 R/B
OBJECT_ID      = 1998-043G
CENTER_NAME    = EARTH
REF_FRAME      = TEME
TIME_SYSTEM    = UTC
MEAN_ELEMENT_THEORY = SGP/SGP4

EPOCH          = 2026-03-28T14:31:55.664832
MEAN_MOTION    = 14.26054040
ECCENTRICITY   = .00092146
INCLINATION    = 98.8285
RA_OF_ASC_NODE = 41.1067
ARG_OF_PERICENTER = 325.2343
MEAN_ANOMALY   = 34.8233

EPHEMERIS_TYPE = 0
CLASSIFICATION_TYPE = U
NORAD_CAT_ID   = 25400
ELEMENT_SET_NO = 999
REV_AT_EPOCH   = 44168
BSTAR          = .45973622E-4
MEAN_MOTION_DOT = .64E-6
MEAN_MOTION_DDOT = 0

